STARLINK-5850           
1 57049U 23088B   24134.30453193  .00022479  00000+0  16746-2 0  9997
2 57049  43.0023 123.4133 0000494 273.0621  87.0164 15.02517200 50468
STARLINK-5845           
1 57050U 23088C   24135.15542533  .00008448  00000+0  63960-3 0  9991
2 57050  43.0020 118.6180 0001496 230.5215 129.5495 15.02540859 49503
STARLINK-5839           
1 57051U 23088D   24134.95487610  .00002258  00000+0  18226-3 0  9991
2 57051  43.0027 119.6925 0000981 293.4739  66.6000 15.02523087 50370
STARLINK-5860           
1 57052U 23088E   24135.22412110  .00008119  00000+0  61498-3 0  9997
2 57052  43.0021 118.2743 0001187 277.5867  82.4840 15.02560607 49513
STARLINK-5865           
1 57053U 23088F   24134.94156074  .00003975  00000+0  30925-3 0  9996
2 57053  43.0025 119.5926 0001299 274.3864  85.6830 15.02527551 50372
STARLINK-5881           
1 57054U 23088G   24134.67010427  .00005134  00000+0  39493-3 0  9996
2 57054  43.0022 120.9970 0001172 271.7921  88.2787 15.02527429 50330
STARLINK-6237           
1 57055U 23088H   24134.94932990  .00007674  00000+0  58262-3 0  9991
2 57055  43.0043 119.6476 0001533 272.8588  87.2078 15.02529918 50373
STARLINK-6353           
1 57056U 23088J   24134.66566724  .00018377  00000+0  13722-2 0  9992
2 57056  42.9994 120.9599 0001291 262.8411  97.2285 15.02527567 50338
STARLINK-6223           
1 57057U 23088K   24134.66232449  .00005580  00000+0  42792-3 0  9999
2 57057  43.0026 120.9140 0001394 277.1857  82.8827 15.02528263 50332
STARLINK-6217           
1 57058U 23088L   24134.33660100 -.00000551  00000+0 -25770-4 0  9996
2 57058  43.0035 122.7923 0001149 291.1658  68.9062 15.02519551 50285
STARLINK-6211           
1 57059U 23088M   24134.66010435  .00004498  00000+0  34790-3 0  9996
2 57059  43.0013 120.9176 0001423 244.3960 115.6735 15.02525780 50337
STARLINK-6227           
1 57060U 23088N   24134.99583778  .00016839  00000+0  12590-2 0  9994
2 57060  43.0018 119.1398 0000957 317.4575  42.6193 15.02524116 49488
STARLINK-5869           
1 57061U 23088P   24135.11879091  .00007630  00000+0  57969-3 0  9995
2 57061  43.0046 118.3388 0001690 289.8773  70.1887 15.02508910 49500
STARLINK-5536           
1 57062U 23088Q   24134.91628554  .00010898  00000+0  82065-3 0  9994
2 57062  43.0029 106.3747 0001236 263.8109  96.2592 15.02531414 50520
STARLINK-5832           
1 57063U 23088R   24135.24397652  .00006600  00000+0  50316-3 0  9994
2 57063  43.0028 117.5567 0001505 285.7642  74.3035 15.02538349 49529
STARLINK-5822           
1 57064U 23088S   24134.65678088  .00012807  00000+0  96139-3 0  9993
2 57064  43.0028 120.8939 0001311 279.2694  80.8000 15.02537249 49353
STARLINK-5830           
1 57065U 23088T   24135.24507162 -.00001672  00000+0 -10866-3 0  9997
2 57065  43.0020 117.5643 0001709 284.4173  75.6480 15.02547049 49524
STARLINK-5827           
1 57066U 23088U   24134.64901321  .00006624  00000+0  50496-3 0  9999
2 57066  43.0023 120.8359 0001043 279.1170  80.9555 15.02533969 49357
STARLINK-5824           
1 57067U 23088V   24135.23843271  .00014234  00000+0  10664-2 0  9993
2 57067  43.0048 117.5188 0001009 307.8896  52.1855 15.02543542 49525
STARLINK-5844           
1 57068U 23088W   24135.24065090  .00007723  00000+0  58591-3 0  9997
2 57068  43.0034 117.5321 0001988 238.5838 121.4810 15.02553103 49527
STARLINK-5821           
1 57069U 23088X   24134.96179798  .00010449  00000+0  78757-3 0  9992
2 57069  43.0025 106.7324 0001427 289.7716  70.2972 15.02527564 50357
STARLINK-5828           
1 57070U 23088Y   24135.17898206  .00008808  00000+0  66606-3 0  9996
2 57070  43.0016 105.7854 0001595 259.8249 100.2413 15.02548681 49659
STARLINK-5834           
1 57071U 23088Z   24134.90309249  .00012749  00000+0  95754-3 0  9996
2 57071  43.0025 107.1544 0001206 290.2828  69.7885 15.02519397 50345
STARLINK-5843           
1 57072U 23088AA  24134.90863754  .00013211  00000+0  99059-3 0  9990
2 57072  43.0022 107.1983 0001089 285.0272  75.0450 15.02558411 49531
STARLINK-5838           
1 57073U 23088AB  24134.91197490  .00014521  00000+0  10879-2 0  9996
2 57073  43.0027 107.2210 0001040 256.5541 103.5186 15.02530855 49535
STARLINK-5773           
1 57074U 23088AC  24134.24015457  .00006019  00000+0  46039-3 0  9996
2 57074  43.0024 122.9255 0001439 261.2554  98.8126 15.02522731 50272
STARLINK-5542           
1 57075U 23088AD  24135.22327770  .00009295  00000+0  70236-3 0  9995
2 57075  43.0026 105.2550 0001139 285.3191  74.7525 15.02528405 49669
STARLINK-6155           
1 57076U 23088AE  24134.64051038  .00002928  00000+0  23183-3 0  9997
2 57076  43.0017 108.6248 0001161 261.6067  98.4644 15.02514723 50301
STARLINK-6194           
1 57077U 23088AF  24134.96290667  .00013733  00000+0  10298-2 0  9994
2 57077  43.0022 106.7413 0001299 285.7369  74.3330 15.02532778 50692
STARLINK-6246           
1 57078U 23088AG  24134.90531872  .00014831  00000+0  11109-2 0  9997
2 57078  43.0028 107.1672 0001393 265.0527  95.0156 15.02527347 50347
STARLINK-6245           
1 57079U 23088AH  24135.21771633  .00008828  00000+0  66788-3 0  9997
2 57079  43.0034 105.2132 0001699 282.0493  78.0159 15.02527519 49652
STARLINK-6243           
1 57080U 23088AJ  24135.23213809  .00005287  00000+0  40630-3 0  9991
2 57080  43.0036 105.3239 0001569 288.3508  71.7164 15.02525870 49651
STARLINK-6184           
1 57081U 23088AK  24135.21438571  .00011731  00000+0  88166-3 0  9992
2 57081  43.0025 105.1877 0001462 256.0363 104.0316 15.02552656 49650
STARLINK-6248           
1 57082U 23088AL  24134.95514652  .00013987  00000+0  10483-2 0  9999
2 57082  43.0024 106.6841 0001184 273.7404  86.3303 15.02540907 50522
STARLINK-6253           
1 57083U 23088AM  24135.20660723  .00003379  00000+0  26504-3 0  9996
2 57083  43.0016 105.1284 0001039 268.7233  91.3490 15.02543864 49652
STARLINK-6240           
1 57084U 23088AN  24134.94959109  .00007837  00000+0  59468-3 0  9994
2 57084  43.0039 106.6417 0000978 265.1026  94.9705 15.02529240 50522
STARLINK-6232           
1 57085U 23088AP  24135.20218333  .00017102  00000+0  12779-2 0  9991
2 57085  43.0021 105.0937 0002359 270.7785  89.2787 15.02537659 49655
STARLINK-6247           
1 57086U 23088AQ  24134.94626254  .00016333  00000+0  12213-2 0  9995
2 57086  43.0033 106.6152 0001522 261.4222  98.6448 15.02537810 50524
STARLINK-6251           
1 57087U 23088AR  24135.19883712  .00003320  00000+0  26071-3 0  9998
2 57087  43.0037 105.0696 0001498 277.1653  82.9019 15.02540231 49652
STARLINK-6257           
1 57088U 23088AS  24134.61055077  .00022145  00000+0  16493-2 0  9992
2 57088  43.0012 108.3986 0000645 278.5947  81.4822 15.02533618 50477
STARLINK-6259           
1 57089U 23088AT  24135.12238576  .00008160  00000+0  61830-3 0  9994
2 57089  43.0018 105.3535 0001182 265.0290  95.0418 15.02544134 49644
STARLINK-6254           
1 57090U 23088AU  24135.19774336  .00009160  00000+0  69205-3 0  9997
2 57090  43.0021 105.0618 0001222 267.5980  92.4723 15.02546158 49656
STARLINK-6262           
1 57091U 23088AV  24134.92628047  .00010591  00000+0  79813-3 0  9991
2 57091  43.0029 106.4647 0001481 253.6458 106.4222 15.02524679 50527
STARLINK-6225           
1 57092U 23088AW  24135.19440242  .00007247  00000+0  55104-3 0  9992
2 57092  43.0030 105.0358 0001733 269.7550  90.3093 15.02533980 49659
STARLINK-6229           
1 57093U 23088AX  24135.11904868  .00008610  00000+0  65186-3 0  9990
2 57093  43.0028 105.3305 0002089 281.7853  78.2755 15.02525388 49649
STARLINK-6235           
1 57094U 23088AY  24135.11794687  .00017733  00000+0  13239-2 0  9994
2 57094  43.0019 105.3202 0001763 282.1791  77.8854 15.02552149 49640
STARLINK-6132           
1 57101U 23090A   24134.61004782  .00011904  00000+0  89477-3 0  9992
2 57101  43.0025 288.8979 0001540 283.5137  76.5534 15.02537322 50364
STARLINK-6111           
1 57102U 23090B   24134.80395511  .00026452  00000+0  19642-2 0  9997
2 57102  43.0029 287.7720 0001387 283.5455  76.5233 15.02566948 50398
STARLINK-6123           
1 57103U 23090C   24134.73350904 -.00001187  00000+0 -72800-4 0  9994
2 57103  43.0042 262.0707 0001189 260.3996  99.6712 15.02530483 50683
STARLINK-6130           
1 57104U 23090D   24134.73969555  .00029092  00000+0  21577-2 0  9999
2 57104  43.0016 288.1530 0001590 276.4782  83.5879 15.02570937 50386
STARLINK-6097           
1 57105U 23090E   24134.80289409  .00045091  00000+0  33298-2 0  9991
2 57105  43.0027 287.7637 0001444 277.4665  82.6013 15.02556289 50396
STARLINK-6118           
1 57106U 23090F   24134.86377715  .00020259  00000+0  15088-2 0  9992
2 57106  43.0024 287.3592 0002059 313.3412  46.7258 15.02576419 49266
STARLINK-6131           
1 57107U 23090G   24134.71747482  .00025780  00000+0  19152-2 0  9999
2 57107  43.0027 287.9824 0001419 260.8072  99.2609 15.02560948 50389
STARLINK-6099           
1 57108U 23090H   24134.86605410  .00043625  00000+0  32217-2 0  9995
2 57108  43.0020 287.3783 0001314 266.6719  93.3973 15.02568064 50406
STARLINK-6139           
1 57109U 23090J   24134.78952070  .00010313  00000+0  77741-3 0  9994
2 57109  43.0037 287.6645 0001664 285.8537  74.2122 15.02535228 50392
STARLINK-6134           
1 57110U 23090K   24134.73418402  .00031734  00000+0  23539-2 0  9992
2 57110  43.0033 288.1101 0001637 280.3665  79.6992 15.02531576 50380
STARLINK-6140           
1 57111U 23090L   24134.91026514  .00013192  00000+0  99004-3 0  9991
2 57111  43.0032 286.8470 0001233 286.1143  73.9563 15.02528045 49275
STARLINK-6141           
1 57112U 23090M   24134.79395620  .00012614  00000+0  94679-3 0  9996
2 57112  43.0034 287.6963 0001512 274.7117  85.3553 15.02551666 49257
STARLINK-6142           
1 57113U 23090N   24134.91582625  .00020052  00000+0  14948-2 0  9999
2 57113  43.0026 286.8910 0001814 280.2507  79.8131 15.02545625 49272
